#aV2022  8  6  0  0  0.00000000     288 DD+AD WGS84 FIT  NGA
## 2221 518400.00000000   300.00000000 59797 0.0000000000000
+   32     1  2  3  4  5  6  7  8  9 10 11 12 13 14 15 16 17
+         18 19 20 21 22 23 24 25 26 27 28 29 30 31 32  0  0
+          0  0  0  0  0  0  0  0  0  0  0  0  0  0  0  0  0
+          0  0  0  0  0  0  0  0  0  0  0  0  0  0  0  0  0
+          0  0  0  0  0  0  0  0  0  0  0  0  0  0  0  0  0
++         2  2  2  2  2  2  2  2  2  2  2  2  2  2  2  2  2
++         2  2  2  2  2  2  2  2  2  2  2  2  2  2  2  0  0
++         0  0  0  0  0  0  0  0  0  0  0  0  0  0  0  0  0
++         0  0  0  0  0  0  0  0  0  0  0  0  0  0  0  0  0
++         0  0  0  0  0  0  0  0  0  0  0  0  0  0  0  0  0
%c cc cc ccc ccc cccc cccc cccc cccc ccccc ccccc ccccc ccccc
%c cc cc ccc ccc cccc cccc cccc cccc ccccc ccccc ccccc ccccc
%f  0.0000000  0.000000000  0.00000000000  0.000000000000000
%f  0.0000000  0.000000000  0.00000000000  0.000000000000000
%i    0    0    0    0      0      0      0      0         0
%i    0    0    0    0      0      0      0      0         0
/*      NGA, ST. LOUIS,MO.                                  
/*   EPHEMERIS COMPUTED FROM 2 DAYS OF DATA                 
/*   EPOCHA v8 SMOOTHER                                     
/*   G2139 IERS2010 SATIGS SATAPC                           
*  2022  8  6 18 10  0.00000000
P  1  -1521.266006  15788.674207 -21548.481521    307.008586                    
V  1 -25098.662895   8934.258468   8770.223505     -0.071199                    
P  2  17021.935277 -17332.336846  11591.594353   -649.775438                    
V  2  13132.895703  -4290.704388 -27047.249802      0.009408                    
P  3   7150.658803  19797.804398 -16385.198098   -325.770077                    
V  3 -17014.436560 -11536.207005 -21415.341103     -0.086431                    
P  4   -971.669841  25972.074999   5239.023014   -136.497817                    
V  4  -3919.863144   6062.826937 -30903.578519      0.049494                    
P  5   6136.661186 -14058.761092  21497.607706    -91.907596                    
V  5  22720.202635  15887.502170   4008.623780     -0.014097                    
P  6  25282.187600  -5729.521190  -5907.077092    415.044155                    
V  6  -6347.300591   4473.982601 -31116.001373      0.145965                    
P  7  15241.539816   9470.321195  20145.575324    315.985967                    
V  7 -22529.479109   9837.830790  12194.573855     -0.019870                    
P  8  -5444.308838  25580.895764   3311.548529    -79.354631                    
V  8  -2484.674405  -4631.736548  31661.315638     -0.016213                    
P  9   7990.231349  20493.532925  14791.006349   -311.114118                    
V  9  -4565.543264  18512.042491 -23106.077367      0.041715                    
P 10 -22916.711911 -10090.609982  -9152.456715   -518.685583                    
V 10  -8009.600335  -8781.778145  28969.910078     -0.134319                    
P 11  22624.928374 -12326.371469   6382.386093    -10.661293                    
V 11   8535.205825    -87.712062 -30434.876424     -0.006351                    
P 12  -3690.887205 -19783.743883 -17653.008314   -258.161979                    
V 12  17087.875276  13662.389877 -19070.540199     -0.059510                    
P 13  13110.637561 -20593.908405  10075.332271    362.882100                    
V 13  -1257.970700  13243.344128  28434.164795      0.072319                    
P 14  22528.319108  11722.866072  -7954.108274   -110.180772                    
V 14   5867.616798   8677.981726  29282.129933      0.012415                    
P 15   2410.581240 -26087.939429   2764.450284    -39.403623                    
V 15   3975.458313   4121.659356  31013.766479      0.030495                    
P 16 -12693.459596   8385.380650  21535.846666   -519.265104                    
V 16 -20193.722474 -19298.302588  -3890.103786     -0.017930                    
P 17  13659.023011   5746.684502 -21604.642120    645.495547                    
V 17  -6107.066122  27771.595336   3510.505043      0.042206                    
P 18 -15181.155804  -8832.983997  19952.885674     90.159320                    
V 18  23323.246662  -9817.618355  13267.637423     -0.119235                    
P 19  15810.193426  -4370.445075 -21087.013641    193.688208                    
V 19  -5750.424009  25584.362518  -9962.979053      0.050265                    
P 20  17315.477848  -6176.778959  19092.854499    496.984060                    
V 20  20480.226581  13305.090049 -14499.794587     -0.031466                    
P 21 -10702.862431  17602.312987 -15727.757162    160.693551                    
V 21 -20317.244847   7245.313213  21809.766630     -0.002667                    
P 22 -15725.401393   7810.791250 -19457.748797    305.269228                    
V 22   4432.541351 -25323.389898 -13631.765825      0.065772                    
P 23 -21032.688426 -16307.988252    772.141973    -35.954174                    
V 23   2248.100019  -1362.819299  31853.999042     -0.013816                    
P 24   4756.355165 -18074.227422 -19027.949836    176.165011                    
V 24  22100.042998  -8900.385880  14628.925328     -0.110718                    
P 25 -15868.644332 -19862.665858  -8439.772717    357.843812                    
V 25   9616.950919   4335.576564 -29019.000101      0.043161                    
P 26 -20003.101225   1688.128661  17458.454017    222.319780                    
V 26 -17183.277329 -14335.600159 -17896.576886      0.019834                    
P 27 -12411.048683  18311.315543  14188.917505    220.248079                    
V 27    444.862780 -18648.867563  24471.177289     -0.011264                    
P 28  20625.228779   5095.455190 -15281.540702    339.583927                    
V 28  13298.652155  15628.488007  22650.864665      0.016412                    
P 29  -5702.252751 -21000.963539  15122.816799   -540.464575                    
V 29   5820.811144 -18458.782067 -23438.014809     -0.033538                    
P 30  22992.637767   1861.920834  13477.111781   -535.450640                    
V 30 -14883.561720   8472.891793  24134.319855     -0.006363                    
P 31 -25688.497495   6910.493705  -3505.016613   -188.657438                    
V 31   3066.589722  -3886.408481 -30903.776913     -0.014203                    
P 32 -15004.518748  -2378.735985 -21638.732982   -196.555423                    
V 32   3723.419552 -27587.931851    260.493436     -0.104691                    
EOF
